SONATE                  
1 44400U 19038Q   24094.23876701  .00016337  00000+0  55385-3 0  9994
2 44400  97.7125  85.2046 0017552  20.5146 339.6795 15.30483694262609
LUCKY-7                 
1 44406U 19038W   24093.71586049  .00030372  00000+0  81635-3 0  9997
2 44406  97.7045  87.8232 0014276  12.2438 347.9150 15.37753939262744
BEESAT 9                
1 44412U 19038AC  24093.51394659  .00120362  00000+0  13189-2 0  9993
2 44412  97.6853  94.3986 0005270  15.9676 344.1747 15.62850204262892
JAISAT-1                
1 44419U 19038F   24093.78381314  .00118981  00000+0  13480-2 0  9991
2 44419  97.6845  95.7333 0005114  16.2079 343.9341 15.61992800263312
DUCHIFAT-3              
1 44854U 19089C   24094.19027743  .00010725  00000+0  58995-3 0  9997
2 44854  36.9577 143.3673 0009274 196.1132 163.9320 15.13508131236829
M2 PATHFINDER           
1 45727U 20037E   24093.44405461  .00004115  00000+0  36754-3 0  9991
2 45727  97.7741 270.3312 0011817  24.6232 335.5551 14.96426831204611
NETSAT-4                
1 46504U 20068U   24093.87060819  .00009295  00000+0  52692-3 0  9993
2 46504  97.7992  49.1228 0007891 256.8387 103.1963 15.13192572192779
NETSAT-3                
1 46505U 20068V   24093.82958151  .00008677  00000+0  49861-3 0  9991
2 46505  97.7958  48.6763 0007306 268.5200  91.5193 15.12729666192768
NETSAT-1                
1 46506U 20068W   24093.80663375  .00007309  00000+0  43563-3 0  9995
2 46506  97.7987  48.2790 0006084 282.9943  77.0607 15.11478792192739
NETSAT-2                
1 46507U 20068X   24093.81727760  .00009891  00000+0  56206-3 0  9992
2 46507  97.7974  48.7258 0005313 291.2246  68.8417 15.13101616192718
WILDTRACKCUBE-SIMBA     
1 47941U 21022K   24094.20101805  .00010899  00000+0  52345-3 0  9996
2 47941  97.4687 351.7456 0017854  51.7044 308.5793 15.18879711167079
BEESAT-6                
1 47957U 21022AB  24093.97795746  .00078875  00000+0  16369-2 0  9992
2 47957  97.4537 359.1483 0010811  40.9983 319.2077 15.45359237167362
SMOG-1                  
1 47964U 21022AJ  24093.68795336  .00066368  00000+0  13743-2 0  9990
2 47964  97.4706   1.8643 0008857  28.1276 332.0449 15.45497570166501
BCCSAT-1                
1 48041U 21022AK  24093.96243870  .00044973  00000+0  12181-2 0  9992
2 48041  97.4699 359.2404 0009041  27.5760 332.5962 15.37490984166330
BEESAT-5                
1 48083U 21022AM  24094.17051420  .00094639  00000+0  16328-2 0  9991
2 48083  97.4342   0.2022 0009525  40.5793 319.6166 15.50639826166627
BEESAT-7                
1 48084U 21022AN  24093.53716470  .00069728  00000+0  15564-2 0  9996
2 48084  97.4655 358.9984 0010327  34.7532 325.4389 15.43246517166033
BEESAT-8                
1 48085U 21022AP  24093.68636671  .00024428  00000+0  90905-3 0  9998
2 48085  97.4796 355.2695 0015012  43.8806 316.3623 15.27382312166339
LEDSAT                  
1 49069U 21073D   24093.77577976  .00012983  00000+0  57266-3 0  9995
2 49069  97.4433 165.5639 0020888 185.7959 174.3039 15.21712330144972
SITRO-AIS 5 (KATYS)     
1 57176U 23091L   24094.22979872  .00006857  00000+0  46112-3 0  9998
2 57176  97.6222 147.1082 0018237  21.8461 338.3540 15.06935877 42207
SITRO-AIS 6 (CHIRKIN)   
1 57192U 23091AC  24094.15161586  .00006229  00000+0  41856-3 0  9996
2 57192  97.6226 147.0507 0018102  22.4549 337.7467 15.07002489 42199
SITRO-AIS 8 (ANOKHIN)   
1 57193U 23091AD  24094.19913428  .00006133  00000+0  40986-3 0  9998
2 57193  97.6224 147.1357 0017931  24.2824 335.9245 15.07216325 42209
SITRO-AIS 7 (FARTUSHNIY)
1 57194U 23091AE  24094.15458869  .00006485  00000+0  43604-3 0  9998
2 57194  97.6223 147.0416 0017961  22.8654 337.3369 15.06964645 42197
SITRO-AIS 10 (BURDAEV)  
1 57199U 23091AK  24094.18937041  .00006294  00000+0  40274-3 0  9998
2 57199  97.6234 147.8123 0012554  14.6127 345.5462 15.08877900 42244
SITRO-AIS 9 (SHCHUKIN)  
1 57201U 23091AM  24094.18728079  .00006341  00000+0  40571-3 0  9994
2 57201  97.6228 147.7968 0012518  14.2783 345.8797 15.08880515 42241
SITRO-AIS 12 (SMIRENNIY)
1 57204U 23091AQ  24094.15875603  .00007591  00000+0  48255-3 0  9995
2 57204  97.6240 147.8699 0012332   7.9502 352.1919 15.09053230 42246
SITRO-AIS 11 (SHEFFER)  
1 57208U 23091AU  24094.21455511  .00007039  00000+0  44703-3 0  9999
2 57208  97.6241 147.9410 0012170   8.9571 351.1873 15.09117798 42259
SITRO-AIS B             
1 59052U 24039B   24094.20277021  .00016315  00000+0  67580-3 0  9993
2 59052  97.3860  57.0710 0022259 117.9312 242.4182 15.23760722  5160
SITRO-AIS C             
1 59053U 24039C   24094.20258102  .00016469  00000+0  68162-3 0  9990
2 59053  97.3859  57.0699 0022331 118.6201 241.7286 15.23785922  5156
SITRO-AIS 31            
1 59054U 24039D   24094.20082357  .00016245  00000+0  67080-3 0  9998
2 59054  97.3858  57.0721 0022136 118.5871 241.7597 15.23870088  5172
SITRO-AIS 33            
1 59055U 24039E   24094.19868576  .00016852  00000+0  69367-3 0  9996
2 59055  97.3860  57.0762 0021880 119.0464 241.2969 15.23973015  5161
SITRO-AIS F             
1 59056U 24039F   24094.19728269  .00016308  00000+0  67055-3 0  9999
2 59056  97.3859  57.0775 0021677 119.1946 241.1464 15.24020595  5160
SITRO-AIS G             
1 59057U 24039G   24094.19851157  .00015837  00000+0  65253-3 0  9997
2 59057  97.3860  57.0760 0021625 119.3210 241.0191 15.23959624  5165
SITRO-AIS 35            
1 59058U 24039H   24094.19792727  .00016470  00000+0  67731-3 0  9992
2 59058  97.3860  57.0778 0021808 119.2827 241.0593 15.24012200  5168
SITRO-AIS 36            
1 59059U 24039J   24094.19582927  .00016673  00000+0  68438-3 0  9992
2 59059  97.3859  57.0798 0021360 119.2210 241.1167 15.24080209  5160
SITRO-AIS 49            
1 59060U 24039K   24094.19528544  .00015760  00000+0  64677-3 0  9996
2 59060  97.3859  57.0804 0021333 119.1678 241.1698 15.24100909  5166
SITRO-AIS 50            
1 59061U 24039L   24094.19408138  .00016735  00000+0  68458-3 0  9997
2 59061  97.3858  57.0819 0021373 119.2239 241.1140 15.24194187  5163
SITRO-AIS 51            
1 59062U 24039M   24094.19342297  .00015997  00000+0  65410-3 0  9995
2 59062  97.3859  57.0829 0021295 119.0853 241.2521 15.24221622  5168
SITRO-AIS 52            
1 59063U 24039N   24094.19175797  .00016700  00000+0  68121-3 0  9990
2 59063  97.3859  57.0850 0021089 118.8702 241.4655 15.24295672  5160
SITRO-AIS 25            
1 59066U 24039R   24094.20626956  .00003947  00000+0  38994-3 0  9997
2 59066  95.3968  46.6446 0172665 240.3002 118.0935 14.81698335  5006
SITRO-AIS 26            
1 59067U 24039S   24094.20578970  .00003925  00000+0  38789-3 0  9998
2 59067  95.3968  46.6448 0172445 240.3298 118.0657 14.81712705  5001
SITRO-AIS 27            
1 59068U 24039T   24094.20337937  .00004009  00000+0  39515-3 0  9997
2 59068  95.3970  46.6483 0172207 240.2127 118.1871 14.81830039  5000
SITRO-AIS 28            
1 59071U 24039U   24094.20254656  .00003775  00000+0  37208-3 0  9993
2 59071  95.3970  46.6495 0172074 240.2085 118.1928 14.81864789  5004
BEIJING 1               
1 28890U 05043A   24094.23176249  .00000570  00000+0  12259-3 0  9995
2 28890  98.1877 217.6894 0013727 281.8047  78.1614 14.62212674982940
HJ-1A                   
1 33320U 08041A   24094.23964362  .00001833  00000+0  25105-3 0  9998
2 33320  97.6351 104.9685 0018815 254.5346 105.3789 14.79501527839272
HJ-1B                   
1 33321U 08041B   24094.19417731  .00001411  00000+0  19139-3 0  9999
2 33321  97.6313 109.4621 0037158 302.4122  57.3498 14.79934146839288
YAOGAN 4                
1 33446U 08061A   24093.95874289  .00001873  00000+0  25758-3 0  9993
2 33446  97.8750  27.3088 0015467 164.8661 195.3016 14.79392034826431
DEIMOS-1                
1 35681U 09041A   24094.14492502  .00001041  00000+0  16883-3 0  9997
2 35681  97.6801 280.1001 0000068 241.7958 118.3244 14.73128925788264
UK-DMC 2                
1 35683U 09041C   24094.15021789  .00001405  00000+0  22596-3 0  9997
2 35683  97.7696 244.9467 0001163  84.3593 275.7748 14.73025822787961
RISAT 1                 
1 38248U 12017A   24094.05256701  .00009810  00000+0  43304-3 0  9995
2 38248  97.5304 111.2816 0004608 129.5963 230.5680 15.21952597658164
DMC3-FM1                
1 40715U 15032A   24094.16454387  .00000944  00000+0  12113-3 0  9992
2 40715  97.7613 335.2442 0005939 164.2794 195.8605 14.83455196470454
DMC3-FM2                
1 40716U 15032B   24094.18765645  .00000962  00000+0  12336-3 0  9994
2 40716  97.7664 336.2864 0007701 172.3648 187.7684 14.83458552470453
DMC3-FM3                
1 40717U 15032C   24094.14252881  .00000763  00000+0  99146-4 0  9998
2 40717  97.7711 337.4782 0009244 171.0461 189.0919 14.83432714470450
NOAA 15                 
1 25338U 98030A   24094.18863954  .00000256  00000+0  12425-3 0  9993
2 25338  98.5770 122.8576 0010479 177.5810 182.5423 14.26526815346749
DMSP 5D-3 F16 (USA 172) 
1 28054U 03048A   24094.21726948  .00000260  00000+0  16070-3 0  9996
2 28054  99.0232  99.9791 0006166 264.6066 169.4032 14.13983165 55689
NOAA 18                 
1 28654U 05018A   24094.15896166  .00000255  00000+0  16006-3 0  9997
2 28654  98.8769 171.7428 0013157 275.5706  84.3966 14.13159170972661
METEOSAT-9 (MSG-2)      
1 28912U 05049B   24094.07968240  .00000128  00000+0  00000+0 0  9994
2 28912   7.5143  61.4752 0001738 325.3099 239.5440  1.00268052 67003
EWS-G1 (GOES 13)        
1 29155U 06018A   24093.82102394 -.00000113  00000+0  00000+0 0  9998
2 29155   2.4275  86.1290 0087635 252.7426 333.3136  0.99157823 65419
DMSP 5D-3 F17 (USA 191) 
1 29522U 06050A   24094.20431171  .00000268  00000+0  16226-3 0  9994
2 29522  98.7481 106.3194 0009877 186.7454 173.3588 14.14429861898593
